<?xml version="1.0" encoding="UTF-8"?>
<kml xmlns="http://www.opengis.net/kml/2.2">
  <Document>
    <name>Lote Exemplo - Brasília</name>
    <Placemark>
      <name>Lote 01 - Vila Nova</name>
      <description>Lote residencial para regularização fundiária</description>
      <Polygon>
        <outerBoundaryIs>
          <LinearRing>
            <coordinates>
              -47.9290,-15.7800,0
              -47.9285,-15.7800,0
              -47.9285,-15.7805,0
              -47.9290,-15.7805,0
              -47.9290,-15.7800,0
            </coordinates>
          </LinearRing>
        </outerBoundaryIs>
      </Polygon>
    </Placemark>
  </Document>
</kml>
